CCSDS_OMM_VERS = 2.0
CREATION_DATE  = 
ORIGINATOR     = 

OBJECT_NAME    = STARLINK-4402
OBJECT_ID      = 2022-099AW
CENTER_NAME    = EARTH
REF_FRAME      = TEME
TIME_SYSTEM    = UTC
MEAN_ELEMENT_THEORY = SGP/SGP4

EPOCH          = 2022-08-29T22:00:00.999936
MEAN_MOTION    = 15.65184638
ECCENTRICITY   = .0001876
INCLINATION    = 97.6556
RA_OF_ASC_NODE = 0.7399
ARG_OF_PERICENTER = 55.9829
MEAN_ANOMALY   = 4.2800

EPHEMERIS_TYPE = 0
CLASSIFICATION_TYPE = U
NORAD_CAT_ID   = 53509
ELEMENT_SET_NO = 999
REV_AT_EPOCH   = 130
BSTAR          = -.13707E-1
MEAN_MOTION_DOT = -.1216107E-1
MEAN_MOTION_DDOT = 0

CCSDS_OMM_VERS = 2.0
CREATION_DATE  = 
ORIGINATOR     = 

OBJECT_NAME    = STARLINK-4441
OBJECT_ID      = 2022-099AX
CENTER_NAME    = EARTH
REF_FRAME      = TEME
TIME_SYSTEM    = UTC
MEAN_ELEMENT_THEORY = SGP/SGP4

EPOCH          = 2022-08-29T22:00:00.999936
MEAN_MOTION    = 15.65177448
ECCENTRICITY   = .0001874
INCLINATION    = 97.6556
RA_OF_ASC_NODE = 0.7397
ARG_OF_PERICENTER = 56.0425
MEAN_ANOMALY   = 3.5741

EPHEMERIS_TYPE = 0
CLASSIFICATION_TYPE = U
NORAD_CAT_ID   = 53510
ELEMENT_SET_NO = 999
REV_AT_EPOCH   = 130
BSTAR          = -.1371E-1
MEAN_MOTION_DOT = -.1216031E-1
MEAN_MOTION_DDOT = 0

CCSDS_OMM_VERS = 2.0
CREATION_DATE  = 
ORIGINATOR     = 

OBJECT_NAME    = FALCON 9 DEB
OBJECT_ID      = 2022-099AY
CENTER_NAME    = EARTH
REF_FRAME      = TEME
TIME_SYSTEM    = UTC
MEAN_ELEMENT_THEORY = SGP/SGP4

EPOCH          = 2022-08-29T18:34:23.981088
MEAN_MOTION    = 15.89680868
ECCENTRICITY   = .0009765
INCLINATION    = 97.6787
RA_OF_ASC_NODE = 0.9849
ARG_OF_PERICENTER = 220.0179
MEAN_ANOMALY   = 140.0374

EPHEMERIS_TYPE = 0
CLASSIFICATION_TYPE = U
NORAD_CAT_ID   = 53511
ELEMENT_SET_NO = 999
REV_AT_EPOCH   = 268
BSTAR          = .51957E-3
MEAN_MOTION_DOT = .151968E-2
MEAN_MOTION_DDOT = .10617E-4

CCSDS_OMM_VERS = 2.0
CREATION_DATE  = 
ORIGINATOR     = 

OBJECT_NAME    = FALCON 9 DEB
OBJECT_ID      = 2022-099AZ
CENTER_NAME    = EARTH
REF_FRAME      = TEME
TIME_SYSTEM    = UTC
MEAN_ELEMENT_THEORY = SGP/SGP4

EPOCH          = 2022-08-30T02:00:33.185952
MEAN_MOTION    = 15.90386571
ECCENTRICITY   = .0007345
INCLINATION    = 97.6764
RA_OF_ASC_NODE = 1.3411
ARG_OF_PERICENTER = 216.6012
MEAN_ANOMALY   = 143.4759

EPHEMERIS_TYPE = 0
CLASSIFICATION_TYPE = U
NORAD_CAT_ID   = 53512
ELEMENT_SET_NO = 999
REV_AT_EPOCH   = 273
BSTAR          = .57219E-3
MEAN_MOTION_DOT = .173198E-2
MEAN_MOTION_DDOT = .13186E-4

CCSDS_OMM_VERS = 2.0
CREATION_DATE  = 
ORIGINATOR     = 

OBJECT_NAME    = FALCON 9 DEB
OBJECT_ID      = 2022-099BA
CENTER_NAME    = EARTH
REF_FRAME      = TEME
TIME_SYSTEM    = UTC
MEAN_ELEMENT_THEORY = SGP/SGP4

EPOCH          = 2022-08-30T03:12:45.688896
MEAN_MOTION    = 15.91816888
ECCENTRICITY   = .001055
INCLINATION    = 97.6732
RA_OF_ASC_NODE = 1.4210
ARG_OF_PERICENTER = 198.5540
MEAN_ANOMALY   = 161.5350

EPHEMERIS_TYPE = 0
CLASSIFICATION_TYPE = U
NORAD_CAT_ID   = 53513
ELEMENT_SET_NO = 999
REV_AT_EPOCH   = 274
BSTAR          = .54172E-3
MEAN_MOTION_DOT = .176867E-2
MEAN_MOTION_DDOT = .13852E-4

CCSDS_OMM_VERS = 2.0
CREATION_DATE  = 
ORIGINATOR     = 

OBJECT_NAME    = FALCON 9 DEB
OBJECT_ID      = 2022-099BB
CENTER_NAME    = EARTH
REF_FRAME      = TEME
TIME_SYSTEM    = UTC
MEAN_ELEMENT_THEORY = SGP/SGP4

EPOCH          = 2022-08-29T13:33:45.011520
MEAN_MOTION    = 15.91850773
ECCENTRICITY   = .0009768
INCLINATION    = 97.6717
RA_OF_ASC_NODE = 0.7820
ARG_OF_PERICENTER = 185.2922
MEAN_ANOMALY   = 174.8249

EPHEMERIS_TYPE = 0
CLASSIFICATION_TYPE = U
NORAD_CAT_ID   = 53514
ELEMENT_SET_NO = 999
REV_AT_EPOCH   = 265
BSTAR          = .5549E-3
MEAN_MOTION_DOT = .18137E-2
MEAN_MOTION_DDOT = .14452E-4

CCSDS_OMM_VERS = 2.0
CREATION_DATE  = 
ORIGINATOR     = 

OBJECT_NAME    = 2022-100A
OBJECT_ID      = 2022-100A
CENTER_NAME    = EARTH
REF_FRAME      = TEME
TIME_SYSTEM    = UTC
MEAN_ELEMENT_THEORY = SGP/SGP4

EPOCH          = 2022-08-29T22:35:46.241088
MEAN_MOTION    = 15.22809316
ECCENTRICITY   = .0007769
INCLINATION    = 35.0008
RA_OF_ASC_NODE = 143.5509
ARG_OF_PERICENTER = 348.6078
MEAN_ANOMALY   = 11.4454

EPHEMERIS_TYPE = 0
CLASSIFICATION_TYPE = U
NORAD_CAT_ID   = 53522
ELEMENT_SET_NO = 999
REV_AT_EPOCH   = 156
BSTAR          = .25133E-3
MEAN_MOTION_DOT = .5993E-4
MEAN_MOTION_DDOT = 0

CCSDS_OMM_VERS = 2.0
CREATION_DATE  = 
ORIGINATOR     = 

OBJECT_NAME    = 2022-100B
OBJECT_ID      = 2022-100B
CENTER_NAME    = EARTH
REF_FRAME      = TEME
TIME_SYSTEM    = UTC
MEAN_ELEMENT_THEORY = SGP/SGP4

EPOCH          = 2022-08-29T22:31:18.484032
MEAN_MOTION    = 15.23485604
ECCENTRICITY   = .0008336
INCLINATION    = 35.0014
RA_OF_ASC_NODE = 143.5247
ARG_OF_PERICENTER = 352.3151
MEAN_ANOMALY   = 7.7428

EPHEMERIS_TYPE = 0
CLASSIFICATION_TYPE = U
NORAD_CAT_ID   = 53523
ELEMENT_SET_NO = 999
REV_AT_EPOCH   = 156
BSTAR          = .39819E-3
MEAN_MOTION_DOT = .9716E-4
MEAN_MOTION_DDOT = 0

CCSDS_OMM_VERS = 2.0
CREATION_DATE  = 
ORIGINATOR     = 

OBJECT_NAME    = 2022-100C
OBJECT_ID      = 2022-100C
CENTER_NAME    = EARTH
REF_FRAME      = TEME
TIME_SYSTEM    = UTC
MEAN_ELEMENT_THEORY = SGP/SGP4

EPOCH          = 2022-08-29T22:31:12.854208
MEAN_MOTION    = 15.22845568
ECCENTRICITY   = .000571
INCLINATION    = 35.0008
RA_OF_ASC_NODE = 143.5257
ARG_OF_PERICENTER = 346.0807
MEAN_ANOMALY   = 13.9749

EPHEMERIS_TYPE = 0
CLASSIFICATION_TYPE = U
NORAD_CAT_ID   = 53524
ELEMENT_SET_NO = 999
REV_AT_EPOCH   = 151
BSTAR          = .21881E-3
MEAN_MOTION_DOT = .5215E-4
MEAN_MOTION_DDOT = 0

CCSDS_OMM_VERS = 2.0
CREATION_DATE  = 
ORIGINATOR     = 

OBJECT_NAME    = 2022-100D
OBJECT_ID      = 2022-100D
CENTER_NAME    = EARTH
REF_FRAME      = TEME
TIME_SYSTEM    = UTC
MEAN_ELEMENT_THEORY = SGP/SGP4

EPOCH          = 2022-08-30T04:45:33.172704
MEAN_MOTION    = 15.23817893
ECCENTRICITY   = .0008731
INCLINATION    = 35.0034
RA_OF_ASC_NODE = 141.8606
ARG_OF_PERICENTER = 4.3130
MEAN_ANOMALY   = 355.7661

EPHEMERIS_TYPE = 0
CLASSIFICATION_TYPE = U
NORAD_CAT_ID   = 53525
ELEMENT_SET_NO = 999
REV_AT_EPOCH   = 155
BSTAR          = .36459E-3
MEAN_MOTION_DOT = .8981E-4
MEAN_MOTION_DDOT = 0

CCSDS_OMM_VERS = 2.0
CREATION_DATE  = 
ORIGINATOR     = 

OBJECT_NAME    = 2022-100E
OBJECT_ID      = 2022-100E
CENTER_NAME    = EARTH
REF_FRAME      = TEME
TIME_SYSTEM    = UTC
MEAN_ELEMENT_THEORY = SGP/SGP4

EPOCH          = 2022-08-29T22:33:45.065088
MEAN_MOTION    = 15.22731964
ECCENTRICITY   = .0005673
INCLINATION    = 35.0026
RA_OF_ASC_NODE = 143.5432
ARG_OF_PERICENTER = 355.7551
MEAN_ANOMALY   = 4.3115

EPHEMERIS_TYPE = 0
CLASSIFICATION_TYPE = U
NORAD_CAT_ID   = 53526
ELEMENT_SET_NO = 999
REV_AT_EPOCH   = 151
BSTAR          = .16206E-3
MEAN_MOTION_DOT = .3839E-4
MEAN_MOTION_DDOT = 0

CCSDS_OMM_VERS = 2.0
CREATION_DATE  = 
ORIGINATOR     = 

OBJECT_NAME    = STARLINK-4511
OBJECT_ID      = 2022-101A
CENTER_NAME    = EARTH
REF_FRAME      = TEME
TIME_SYSTEM    = UTC
MEAN_ELEMENT_THEORY = SGP/SGP4

EPOCH          = 2022-08-29T22:00:00.999936
MEAN_MOTION    = 15.75678673
ECCENTRICITY   = .0003274
INCLINATION    = 53.2175
RA_OF_ASC_NODE = 104.6444
ARG_OF_PERICENTER = 340.8521
MEAN_ANOMALY   = 277.0157

EPHEMERIS_TYPE = 0
CLASSIFICATION_TYPE = U
NORAD_CAT_ID   = 53527
ELEMENT_SET_NO = 999
REV_AT_EPOCH   = 161
BSTAR          = -.84966E-2
MEAN_MOTION_DOT = -.1181367E-1
MEAN_MOTION_DDOT = 0

