STARLINK-4402           
1 53509U 22099AW  22241.91667824 -.01216107  00000+0 -13707-1 0  9996
2 53509  97.6556   0.7399 0001876  55.9829   4.2800 15.65184638  1305
STARLINK-4441           
1 53510U 22099AX  22241.91667824 -.01216031  00000+0 -13710-1 0  9998
2 53510  97.6556   0.7397 0001874  56.0425   3.5741 15.65177448  1304
FALCON 9 DEB            
1 53511U 22099AY  22241.77388867  .00151968  10617-4  51957-3 0  9991
2 53511  97.6787   0.9849 0009765 220.0179 140.0374 15.89680868  2683
FALCON 9 DEB            
1 53512U 22099AZ  22242.08371743  .00173198  13186-4  57219-3 0  9992
2 53512  97.6764   1.3411 0007345 216.6012 143.4759 15.90386571  2734
FALCON 9 DEB            
1 53513U 22099BA  22242.13386214  .00176867  13852-4  54172-3 0  9999
2 53513  97.6732   1.4210 0010550 198.5540 161.5350 15.91816888  2743
FALCON 9 DEB            
1 53514U 22099BB  22241.56510430  .00181370  14452-4  55490-3 0  9991
2 53514  97.6717   0.7820 0009768 185.2922 174.8249 15.91850773  2657
2022-100A               
1 53522U 22100A   22241.94150742  .00005993  00000+0  25133-3 0  9997
2 53522  35.0008 143.5509 0007769 348.6078  11.4454 15.22809316  1565
2022-100B               
1 53523U 22100B   22241.93840838  .00009716  00000+0  39819-3 0  9992
2 53523  35.0014 143.5247 0008336 352.3151   7.7428 15.23485604  1567
2022-100C               
1 53524U 22100C   22241.93834322  .00005215  00000+0  21881-3 0  9994
2 53524  35.0008 143.5257 0005710 346.0807  13.9749 15.22845568  1511
2022-100D               
1 53525U 22100D   22242.19830061  .00008981  00000+0  36459-3 0  9990
2 53525  35.0034 141.8606 0008731   4.3130 355.7661 15.23817893  1554
2022-100E               
1 53526U 22100E   22241.94010492  .00003839  00000+0  16206-3 0  9996
2 53526  35.0026 143.5432 0005673 355.7551   4.3115 15.22731964  1514
STARLINK-4511           
1 53527U 22101A   22241.91667824 -.01181367  00000+0 -84966-2 0  9995
2 53527  53.2175 104.6444 0003274 340.8521 277.0157 15.75678673  1611
